LEMUR-2-ANDIS           
1 42838U 17042P   26068.55941107  .00023598  00000+0  79875-3 0  9998
2 42838  97.3659 249.7950 0009101   4.3248 355.8070 15.30557934473198
STARLINK-1316           
1 45415U 20019BH  26068.54392573 -.00000298  00000+0  20517-5 0  9990
2 45415  53.1611 129.9786 0001315  83.5347 276.5804 15.30197836329975
